[{"user_id":95,"street":"03954 Stephen Terrace","city":"Liang"},
{"user_id":61,"street":"33888 Pawling Circle","city":"Siyang"},
{"user_id":36,"street":"2 Pine View Avenue","city":"Puerto Rico","zip_code":"3334"},
{"user_id":94,"street":"97426 Kingsford Point","city":"Matanog","zip_code":"9613"},
{"user_id":38,"street":"600 Surrey Point","city":"Hekou"},
{"user_id":98,"street":"721 Del Sol Court","city":"Shengli"},
{"user_id":63,"street":"837 Novick Junction","city":"Dumbéa","zip_code":"98839"},
{"user_id":31,"street":"2 Lerdahl Trail","city":"Parychy"},
{"user_id":72,"street":"4401 Bunker Hill Circle","city":"Cuenca"},
{"user_id":75,"street":"40 Northwestern Lane","city":"San Vicente","zip_code":"6419"},
{"user_id":16,"street":"90485 Manufacturers Way","city":"Cimo de Vila","state":"13","zip_code":"4615-092"},
{"user_id":34,"street":"3 Aberg Parkway","city":"Nishinomiya-hama","zip_code":"663-8234"},
{"user_id":91,"street":"97438 Upham Point","city":"Manadas","state":"45","zip_code":"9800-026"},
{"user_id":48,"street":"4 Oak Valley Trail","city":"Bell Ville","zip_code":"2550"},
{"user_id":83,"street":"88825 Riverside Alley","city":"Purwa"},
{"user_id":36,"street":"0 Arizona Park","city":"Tangquan"},
{"user_id":95,"street":"4 Little Fleur Point","city":"Cantao-an","zip_code":"9023"},
{"user_id":69,"street":"6 Acker Junction","city":"Wuli"},
{"user_id":48,"street":"50 Butternut Road","city":"Ruyigi"},
{"user_id":92,"street":"89480 Schmedeman Avenue","city":"Banjar Teguan"},
{"user_id":9,"street":"77 Fuller Trail","city":"São Miguel dos Campos","zip_code":"57240-000"},
{"user_id":91,"street":"539 Rieder Way","city":"Calango"},
{"user_id":96,"street":"20863 Dennis street","city":"Yangjiapo"},
{"user_id":52,"street":"3216 Brown Center","city":"Charleston","state":"WV","zip_code":"25336"},
{"user_id":7,"street":"3797 Westend street","city":"Caringin"},
{"user_id":94,"street":"46970 Stuart Way","city":"Alcala","zip_code":"3507"},
{"user_id":16,"street":"88176 Sommers Drive","city":"Tullinge","state":"AB","zip_code":"146 50"},
{"user_id":53,"street":"104 Granby Park","city":"Pingtang"},
{"user_id":11,"street":"9651 Jenifer Parkway","city":"San Antonio","state":"JAL","zip_code":"47336"},
{"user_id":8,"street":"0 Towne street","city":"Rājbirāj"},
{"user_id":46,"street":"15356 Bellgrove Trail","city":"Tsagaan-Olom"},
{"user_id":33,"street":"9597 Pennsylvania Pass","city":"Nîmes","state":"A9","zip_code":"30011 CEDEX 4"},
{"user_id":99,"street":"627 Hovde Hill","city":"Ochakiv"},
{"user_id":11,"street":"93 New Castle Way","city":"Guihulñgan","zip_code":"6214"},
{"user_id":19,"street":"04 Dexter Lane","city":"Maebaru","zip_code":"865-0126"},
{"user_id":20,"street":"8 Pawling street","city":"Cibeureum Satu"},
{"user_id":39,"street":"3708 Holmberg Place","city":"Askim","state":"01","zip_code":"1808"},
{"user_id":55,"street":"016 Spohn Avenue","city":"La Peña"},
{"user_id":76,"street":"7 Grim Crossing","city":"Khombole"},
{"user_id":80,"street":"90181 Troy Circle","city":"Capira"},
{"user_id":70,"street":"063 Annamark Circle","city":"Yanzhao"},
{"user_id":30,"street":"8 Grim Trail","city":"San Luis","zip_code":"8511"},
{"user_id":19,"street":"3 Summer Ridge Hill","city":"Zbarazh"},
{"user_id":67,"street":"698 Glendale street","city":"Semanding"},
{"user_id":77,"street":"28 Milwaukee Pass","city":"Rasskazovo","zip_code":"680001"},
{"user_id":84,"street":"309 Novick Junction","city":"Chuquitira"},
{"user_id":63,"street":"2 Canary Road","city":"Dzyarzhynsk"},
{"user_id":53,"street":"69 Lerdahl Point","city":"Sa‘sa‘"},
{"user_id":10,"street":"4 Morning Court","city":"Santo Amaro","zip_code":"44200-000"},
{"user_id":77,"street":"1421 Kennedy Park","city":"Shunde"},
{"user_id":62,"street":"7298 Garrison Pass","city":"Puerto Berrío","zip_code":"053428"},
{"user_id":29,"street":"79793 Grim Lane","city":"Cawayan Bugtong","zip_code":"4332"},
{"user_id":4,"street":"092 Swallow Drive","city":"Guanshui"},
{"user_id":44,"street":"07229 High Crossing Road","city":"Bairro Assunção Piedade","state":"15","zip_code":"2950-542"},
{"user_id":69,"street":"75688 Schiller Court","city":"Kasese"},
{"user_id":57,"street":"08 Dwight street","city":"Zaytā Jammā‘īn"},
{"user_id":21,"street":"88 Sloan street","city":"Qiying"},
{"user_id":15,"street":"64552 Leroy Lane","city":"Far‘ūn"},
{"user_id":56,"street":"558 Kensington Avenue","city":"Tullinge","state":"AB","zip_code":"146 50"},
{"user_id":30,"street":"2428 Armistice Parkway","city":"Haarlem","state":"07","zip_code":"2019"},
{"user_id":95,"street":"3631 Thierer Lane","city":"Balma","state":"B3","zip_code":"31139 CEDEX"},
{"user_id":29,"street":"645 Dixon street","city":"Ribaldeira","state":"11","zip_code":"2565-245"},
{"user_id":10,"street":"397 Lotheville Alley","city":"Longwantun"},
{"user_id":22,"street":"351 Artisan Court","city":"Benger"},
{"user_id":100,"street":"46 Evergreen Trail","city":"La Quiaca","zip_code":"3461"},
{"user_id":100,"street":"9625 Brentwood Place","city":"Myhove"},
{"user_id":70,"street":"23 Ilene Center","city":"Olbramovice","zip_code":"671 76"},
{"user_id":6,"street":"99107 Mosinee Circle","city":"Mabini","zip_code":"6313"},
{"user_id":52,"street":"8353 Mccormick Court","city":"Los Angeles","state":"CA","zip_code":"90071"},
{"user_id":89,"street":"6 Gulseth Park","city":"São João das Lampas","state":"11","zip_code":"2705-785"},
{"user_id":15,"street":"22 Alpine Center","city":"Metapán"},
{"user_id":68,"street":"8 Petterle Plaza","city":"Shiojiri","zip_code":"399-0746"},
{"user_id":77,"street":"3967 Pennsylvania Crossing","city":"Svenljunga","state":"O","zip_code":"512 24"},
{"user_id":83,"street":"3263 Vermont Plaza","city":"Xinle"},
{"user_id":52,"street":"83762 Everett Place","city":"Haitang"},
{"user_id":45,"street":"6 Michigan Crossing","city":"Pukou"},
{"user_id":74,"street":"374 Dapin Terrace","city":"Hetan"},
{"user_id":59,"street":"98 North Parkway","city":"Laba Goumen"},
{"user_id":21,"street":"106 Hooker Hill","city":"Bajiao"},
{"user_id":73,"street":"89471 Amoth Crossing","city":"Baishuiyang"},
{"user_id":18,"street":"91651 Stone Corner Plaza","city":"Alkmaar","state":"07","zip_code":"1804"},
{"user_id":73,"street":"5606 Rowland Park","city":"Kelowna","state":"BC","zip_code":"V1Y"},
{"user_id":68,"street":"1092 Hintze Way","city":"Taoyuan"},
{"user_id":37,"street":"4756 Chive Junction","city":"Lasi Dua"},
{"user_id":30,"street":"2 Rigney Way","city":"Istres","state":"B8","zip_code":"13802 CEDEX"},
{"user_id":46,"street":"551 Oxford Lane","city":"Livadiya","zip_code":"363001"},
{"user_id":72,"street":"06 Anthes Road","city":"Lomba","state":"01","zip_code":"3720-709"},
{"user_id":11,"street":"8 Florence Place","city":"Montreuil","state":"A8","zip_code":"93104 CEDEX"},
{"user_id":44,"street":"8632 Towne Circle","city":"Saint-Péray","state":"B9","zip_code":"07139 CEDEX"},
{"user_id":73,"street":"0311 Fulton Circle","city":"Duque de Caxias","zip_code":"25000-000"},
{"user_id":53,"street":"7977 Badeau Junction","city":"Belawang"},
{"user_id":78,"street":"2056 Sutteridge Crossing","city":"Karpokhórion"},
{"user_id":81,"street":"756 Gateway Way","city":"Gameleira","zip_code":"55530-000"},
{"user_id":47,"street":"6 Carberry Avenue","city":"Viljandi"},
{"user_id":73,"street":"2 Tennyson Parkway","city":"Yalagüina"},
{"user_id":40,"street":"770 Marcy Terrace","city":"Höviyn Am"},
{"user_id":61,"street":"182 Homewood Court","city":"Yuquan"},
{"user_id":81,"street":"362 Fairview Point","city":"Jeponkrajan"},
{"user_id":10,"street":"1 Reindahl Crossing","city":"Alexandria","state":"VA","zip_code":"22313"},
{"user_id":39,"street":"54631 Packers Center","city":"Sison","zip_code":"8404"}]